QZS-1R                  
1 49336U 21096A   24160.13938285 -.00000289  00000+0  00000+0 0  9993
2 49336  35.9274  90.6646 0755560 271.3650  79.7311  1.00262399  9593
